IRIDIUM 36 [-]          
1 24967U 97056C   24010.46580119  .00000517  00000+0  16950-3 0  9992
2 24967  86.3954  32.8913 0002046  91.7421 268.4010 14.36575169377002
IRIDIUM 39 [-]          
1 25042U 97069D   24010.25288295  .00000845  00000+0  22379-3 0  9994
2 25042  86.3899  75.5669 0016328 252.1837 107.7586 14.47611800373126
IRIDIUM 38 [-]          
1 25043U 97069E   24010.24481538  .00000550  00000+0  17887-3 0  9990
2 25043  86.3954  93.4602 0003587  66.2460 293.9113 14.37044862370683
IRIDIUM 42 [-]          
1 25077U 97077A   24010.31895417  .00000588  00000+0  19839-3 0  9999
2 25077  86.3963  98.9619 0002451  80.4975 279.6498 14.35341810366027
IRIDIUM 44 [-]          
1 25078U 97077B   24011.11855535  .00000662  00000+0  20764-3 0  9998
2 25078  86.3941  81.9480 0001216  30.9015 329.2254 14.39154799368470
IRIDIUM 45 [-]          
1 25104U 97082A   24010.31484900  .00010910  00000+0  66753-3 0  9994
2 25104  86.3762 296.5510 0176292  95.1965 266.9411 14.97929329373036
IRIDIUM 24 [-]          
1 25105U 97082B   24010.84573416  .00000824  00000+0  25062-3 0  9995
2 25105  86.3920 301.9256 0012124  16.2675 343.8911 14.40923720368071
IRIDIUM 51 [-]          
1 25262U 98018A   24010.87986802  .00022809  00000+0  11910-2 0  9992
2 25262  86.3909 306.5709 0161461  45.1349 316.2867 15.05108235367772
